{
  "norad_id": 59332,
  "name": "STARLINK-31594",
  "history": [
    {
      "epoch": "2026-03-28T11:44:39.614496",
      "apogee_km": 484.1147986747701,
      "perigee_km": 481.9112717294656,
      "latitude_deg": -42.854140798803144,
      "longitude_deg": 160.17734944005497,
      "semi_major_axis_km": 6861.150035202118,
      "eccentricity": 0.00016058,
      "inclination_deg": 43.004,
      "raan_deg": 92.1969,
      "arg_perigee_deg": 282.9732,
      "mean_anomaly_deg": 77.094,
      "mean_motion_rev_day": 15.27592043
    }
  ]
}