{"fetched_at":"2026-03-29T02:12:04Z","count":15717,"tles":[{"name":"STARLINK-31594","line1":"1 59332U 24057N   26087.48934739 -.00003023  00000+0 -10034-3 0  9990","line2":"2 59332  43.0040  92.1969 0001605 282.9732  77.0940 15.27592043112588","category":"Starlink"}]}